OBJECT_NAME,OBJECT_ID,EPOCH,MEAN_MOTION,ECCENTRICITY,INCLINATION,RA_OF_ASC_NODE,ARG_OF_PERICENTER,MEAN_ANOMALY,EPHEMERIS_TYPE,CLASSIFICATION_TYPE,NORAD_CAT_ID,ELEMENT_SET_NO,REV_AT_EPOCH,BSTAR,MEAN_MOTION_DOT,MEAN_MOTION_DDOT
2026-134C,2026-134C,2026-06-30T05:56:27.813696,15.09517689,.00142583,97.6992,251.4021,226.0984,133.9069,0,U,69540,999,227,.28092219E-3,.4449E-4,0
2026-134D,2026-134D,2026-06-30T05:55:38.313408,15.09574844,.00153346,97.7033,251.4101,225.8762,134.1206,0,U,69541,999,227,.27875433E-3,.4422E-4,0
2026-134E,2026-134E,2026-06-30T05:55:19.324416,15.09596673,.00150557,97.7052,251.4137,226.6705,133.3270,0,U,69542,999,227,.2771742E-3,.4399E-4,0
2026-134F,2026-134F,2026-06-30T05:54:39.774816,15.09644732,.00143169,97.7004,251.4056,228.5055,131.4946,0,U,69543,999,227,.32940484E-3,.5247E-4,0
2026-134G,2026-134G,2026-06-30T10:39:47.092320,15.09728342,.00148405,97.7047,251.6146,228.5225,131.4731,0,U,69544,999,230,.28213744E-3,.4495E-4,0
2026-134H,2026-134H,2026-06-30T05:52:30.954144,15.09792519,.0014642,97.7032,251.4131,230.7138,129.2792,0,U,69545,999,226,.27602171E-3,.4404E-4,0
STARLINK-37880,2026-135A,2026-06-30T12:13:36.721920,15.80965824,.00008183,97.2837,209.2747,35.8842,324.2481,0,U,69546,999,236,.1859757E-2,.374378E-2,0
STARLINK-37881,2026-135B,2026-06-30T12:12:47.173248,15.80935519,.00005289,97.2841,209.2757,294.6409,65.4804,0,U,69547,999,236,.13122406E-2,.260282E-2,0
STARLINK-37265,2026-135C,2026-06-30T12:11:49.014816,15.80937502,.00008984,97.2843,209.2766,263.1911,96.9255,0,U,69548,999,236,.13318641E-2,.264319E-2,0
STARLINK-37871,2026-135D,2026-06-30T12:10:28.680960,15.80926989,.00001789,97.2837,209.2778,49.5462,310.5822,0,U,69549,999,236,.12899103E-2,.255619E-2,0
STARLINK-37865,2026-135E,2026-06-30T12:08:23.666208,15.80888473,.0000083,97.2833,209.2793,86.0610,274.0668,0,U,69550,999,236,.12086739E-2,.238621E-2,0
STARLINK-37862,2026-135F,2026-06-30T12:04:21.919872,15.80987629,.00006404,97.2832,209.2834,356.9348,3.1916,0,U,69551,999,236,.20475304E-2,.414546E-2,0
STARLINK-37861,2026-135G,2026-06-30T12:01:37.075584,15.80922190,.00008723,97.2832,209.2859,84.4127,275.7240,0,U,69552,999,236,.14961359E-2,.297889E-2,0
STARLINK-37859,2026-135H,2026-06-29T19:17:11.338080,15.81150023,.00015885,97.2823,208.5509,351.7524,8.3718,0,U,69553,999,225,.23821956E-2,.490171E-2,0
STARLINK-37860,2026-135J,2026-06-29T20:48:20.279232,15.80884420,.00009847,97.2842,208.6184,45.8362,314.2987,0,U,69554,999,226,.63700018E-3,.124008E-2,0
STARLINK-37858,2026-135K,2026-06-30T13:28:20.474112,15.80278370,.00057263,97.2830,209.3579,81.6415,278.5502,0,U,69555,999,237,-.26105265E-2,-.463874E-2,0
STARLINK-37927,2026-135L,2026-06-30T11:56:55.063392,15.81090620,.00006477,97.2847,209.2903,301.3010,58.8194,0,U,69556,999,236,.23072718E-2,.472538E-2,0
STARLINK-37929,2026-135M,2026-06-30T11:55:43.202784,15.80983328,.00015893,97.2830,209.2916,24.5239,335.6104,0,U,69557,999,236,.20534504E-2,.415688E-2,0
STARLINK-37954,2026-135N,2026-06-30T08:51:39.080448,15.80993409,.00011068,97.2835,209.1599,181.7646,178.3619,0,U,69558,999,234,.18194823E-2,.366379E-2,0
STARLINK-37958,2026-135P,2026-06-30T12:00:02.000160,15.80780258,.00013427,97.2839,209.3047,104.5220,293.6182,0,U,69559,999,345,.59367522E-3,.114896E-2,0
STARLINK-37950,2026-135Q,2026-06-28T08:10:58.717632,15.80972039,.00011308,97.2837,207.0196,133.1005,227.0358,0,U,69560,999,202,.189846E-2,.382639E-2,0
STARLINK-37952,2026-135R,2026-06-30T01:10:06.676896,15.80841419,.00012658,97.2829,208.8311,17.8731,342.2582,0,U,69561,999,229,.71392442E-3,.138968E-2,0
STARLINK-37935,2026-135S,2026-06-30T01:08:59.993376,15.80960290,.00011738,97.2827,208.8318,129.8057,230.3315,0,U,69562,999,229,.16860365E-2,.337862E-2,0
STARLINK-37936,2026-135T,2026-06-29T20:25:25.984416,15.80894625,.0001522,97.2813,208.6395,98.9574,261.1866,0,U,69563,999,226,.91879685E-3,.180179E-2,0
STARLINK-37932,2026-135U,2026-06-30T13:06:50.167008,15.80990840,.00009105,97.2811,209.3787,236.5058,123.6124,0,U,69564,999,237,.23416362E-2,.477672E-2,0
STARLINK-37916,2026-135V,2026-06-29T14:19:30.376704,15.80824544,.00012625,97.2817,208.3735,176.8262,183.3015,0,U,69565,999,222,.11838888E-2,.232877E-2,0
STARLINK-37909,2026-135W,2026-06-30T12:57:43.940160,15.80934678,.00010639,97.2826,209.3881,57.8146,302.3226,0,U,69566,999,237,.12288532E-2,.243237E-2,0
STARLINK-37934,2026-135X,2026-06-30T13:02:20.852160,15.81129897,.00007759,97.2826,209.3835,357.5462,2.5802,0,U,69567,999,237,.18562193E-2,.376571E-2,0
STARLINK-37938,2026-135Y,2026-06-30T12:58:49.039104,15.80976032,.00015456,97.2832,209.3867,234.9283,125.1841,0,U,69568,999,237,.16650643E-2,.333733E-2,0
STARLINK-37924,2026-135Z,2026-06-30T12:54:51.010560,15.80882483,.00009254,97.2822,209.3898,100.5670,259.5702,0,U,69569,999,237,.86789673E-3,.169891E-2,0
